ORBCOMM FM115           
1 41186U 15081H   25361.83709151  .00000786  00000+0  18616-3 0  9991
2 41186  46.9963 198.2692 0001310 242.0177 118.0578 14.62947978536128
ORBCOMM FM108           
1 41187U 15081J   25361.09783139  .00001172  00000+0  28582-3 0  9991
2 41187  47.0052 275.6686 0001880 121.4229 238.6841 14.58588841534959
ORBCOMM FM117           
1 41188U 15081K   25361.74840398  .00001118  00000+0  27415-3 0  9999
2 41188  47.0014 271.2852 0002286 134.2047 225.9027 14.58615354535097
ORBCOMM FM116           
1 41189U 15081L   25361.04380181  .00001192  00000+0  28993-3 0  9996
2 41189  47.0032   4.3869 0002350 314.2853  45.7840 14.58606892533803
